0 CZ-4 DEB
1 37612U 90081CY  13283.24066583  .00001234  00000-0  43801-3 0  1483
2 37612 098.6059 281.6979 0039781 055.5399 304.9497 14.35748847549964
0 CZ-4 DEB
1 37612U 90081CY  13287.21296157  .00001349  00000-0  47749-3 0  1501
2 37612 098.6101 285.6728 0039959 046.5108 313.9838 14.35762802550534
0 CZ-4 DEB
1 37612U 90081CY  13289.23393347  .00001374  00000-0  48574-3 0  1510
2 37612 098.6135 287.7020 0041061 043.7096 316.7505 14.35769218550823
0 CZ-4 DEB
1 37612U 90081CY  13291.25489861  .00001426  00000-0  50340-3 0  1525
2 37612 098.6162 289.7334 0041879 038.8334 321.5989 14.35776393551115
0 CZ-4 DEB
1 37612U 90081CY  13295.22711901  .00001680  00000-0  58972-3 0  1531
2 37612 098.5978 293.6519 0042573 014.8202 345.6609 14.35797563551688
